{"type": "FeatureCollection", "features": [ {"type": "Feature", "properties": {"norad_id": 66592, "name": "STARLINK-36066", "group": "last-30-days", "lat": -9.54830792346422, "lon": 76.1989400535435, "alt_km": 342.51461020339866, "timestamp": "2025-12-03T19:33:05.757510+00:00", "meta": {"OBJECT_NAME": "STARLINK-36066", "OBJECT_ID": "2025-270E", "EPOCH": "2025-12-03T08:00:01.999008", "MEAN_MOTION": 15.77664507, "ECCENTRICITY": 0.0001877, "INCLINATION": 42.9989, "RA_OF_ASC_NODE": 248.7271, "ARG_OF_PERICENTER": 268.2079, "MEAN_ANOMALY": 70.3939, "EPHEMERIS_TYPE": 0, "CLASSIFICATION_TYPE": "U", "NORAD_CAT_ID": 66592, "ELEMENT_SET_NO": 999, "REV_AT_EPOCH": 279, "BSTAR": -0.010569, "MEAN_MOTION_DOT": -0.015921, "MEAN_MOTION_DDOT": 0}, "tle": {"line1": "1 66592U 25270E   25337.33335647 -.01592100  00000+0 -10569-1 0  9999", "line2": "2 66592  42.9989 248.7271 0001877 268.2079  70.3939 15.77664507  2796"}}, "geometry": {"type": "Point", "coordinates": [76.1989400535435, -9.54830792346422]}}, {"type": "Feature", "properties": {"norad_id": 66593, "name": "STARLINK-36031", "group": "last-30-days", "lat": -11.84907683372306, "lon": 78.7999661083971, "alt_km": 339.94031541602726, "timestamp": "2025-12-03T19:33:05.757519+00:00", "meta": {"OBJECT_NAME": "STARLINK-36031", "OBJECT_ID": "2025-270F", "EPOCH": "2025-12-03T11:07:19.086240", "MEAN_MOTION": 15.77750161, "ECCENTRICITY": 0.0002904, "INCLINATION": 43.0003, "RA_OF_ASC_NODE": 247.9281, "ARG_OF_PERICENTER": 347.995, "MEAN_ANOMALY": 12.085, "EPHEMERIS_TYPE": 0, "CLASSIFICATION_TYPE": "U", "NORAD_CAT_ID": 66593, "ELEMENT_SET_NO": 999, "REV_AT_EPOCH": 289, "BSTAR": -0.00058867, "MEAN_MOTION_DOT": -0.00101277, "MEAN_MOTION_DDOT": 0}, "tle": {"line1": "1 66593U 25270F   25337.46341535 -.00101277  00000+0 -58867-3 0  9992", "line2": "2 66593  43.0003 247.9281 0002904 347.9950  12.0850 15.77750161  2891"}}, "geometry": {"type": "Point", "coordinates": [78.7999661083971, -11.84907683372306]}}, {"type": "Feature", "properties": {"norad_id": 66594, "name": "STARLINK-36032", "group": "last-30-days", "lat": -12.182889065497086, "lon": 79.18606226962757, "alt_km": 343.03701879985056, "timestamp": "2025-12-03T19:33:05.757529+00:00", "meta": {"OBJECT_NAME": "STARLINK-36032", "OBJECT_ID": "2025-270G", "EPOCH": "2025-12-03T08:00:01.999008", "MEAN_MOTION": 15.77566251, "ECCENTRICITY": 0.0001721, "INCLINATION": 42.9988, "RA_OF_ASC_NODE": 248.7168, "ARG_OF_PERICENTER": 266.4845, "MEAN_ANOMALY": 76.2615, "EPHEMERIS_TYPE": 0, "CLASSIFICATION_TYPE": "U", "NORAD_CAT_ID": 66594, "ELEMENT_SET_NO": 999, "REV_AT_EPOCH": 262, "BSTAR": -0.010797, "MEAN_MOTION_DOT": -0.01647738, "MEAN_MOTION_DDOT": 0}, "tle": {"line1": "1 66594U 25270G   25337.33335647 -.01647738  00000+0 -10797-1 0  9992", "line2": "2 66594  42.9988 248.7168 0001721 266.4845  76.2615 15.77566251  2626"}}, "geometry": {"type": "Point", "coordinates": [79.18606226962757, -12.182889065497086]}}, {"type": "Feature", "properties": {"norad_id": 66595, "name": "STARLINK-35711", "group": "last-30-days", "lat": -13.482727604533121, "lon": 80.69408277051315, "alt_km": 343.3716887803903, "timestamp": "2025-12-03T19:33:05.757539+00:00", "meta": {"OBJECT_NAME": "STARLINK-35711", "OBJECT_ID": "2025-270H", "EPOCH": "2025-12-03T08:00:01.999008", "MEAN_MOTION": 15.77519386, "ECCENTRICITY": 0.0001794, "INCLINATION": 42.9989, "RA_OF_ASC_NODE": 248.7112, "ARG_OF_PERICENTER": 269.6847, "MEAN_ANOMALY": 75.1247, "EPHEMERIS_TYPE": 0, "CLASSIFICATION_TYPE": "U", "NORAD_CAT_ID": 66595, "ELEMENT_SET_NO": 999, "REV_AT_EPOCH": 299, "BSTAR": -0.01092, "MEAN_MOTION_DOT": -0.01661351, "MEAN_MOTION_DDOT": 0}, "tle": {"line1": "1 66595U 25270H   25337.33335647 -.01661351  00000+0 -10920-1 0  9998", "line2": "2 66595  42.9989 248.7112 0001794 269.6847  75.1247 15.77519386  2990"}}, "geometry": {"type": "Point", "coordinates": [80.69408277051315, -13.482727604533121]}}, {"type": "Feature", "properties": {"norad_id": 66596, "name": "STARLINK-35811", "group": "last-30-days", "lat": -14.763944152212147, "lon": 82.20782795923134, "alt_km": 343.74861428224995, "timestamp": "2025-12-03T19:33:05.757551+00:00", "meta": {"OBJECT_NAME": "STARLINK-35811", "OBJECT_ID": "2025-270J", "EPOCH": "2025-12-03T08:00:01.999008", "MEAN_MOTION": 15.77481419, "ECCENTRICITY": 0.0001709, "INCLINATION": 42.9988, "RA_OF_ASC_NODE": 248.7061, "ARG_OF_PERICENTER": 274.7998, "MEAN_ANOMALY": 72.0379, "EPHEMERIS_TYPE": 0, "CLASSIFICATION_TYPE": "U", "NORAD_CAT_ID": 66596, "ELEMENT_SET_NO": 999, "REV_AT_EPOCH": 299, "BSTAR": -0.011012, "MEAN_MOTION_DOT": -0.01671161, "MEAN_MOTION_DDOT": 0}, "tle": {"line1": "1 66596U 25270J   25337.33335647 -.01671161  00000+0 -11012-1 0  9992", "line2": "2 66596  42.9988 248.7061 0001709 274.7998  72.0379 15.77481419  2990"}}, "geometry": {"type": "Point", "coordinates": [82.20782795923134, -14.763944152212147]}}, {"type": "Feature", "properties": {"norad_id": 66597, "name": "STARLINK-35820", "group": "last-30-days", "lat": -16.02093199834295, "lon": 83.72245616001668, "alt_km": 343.73284249007065, "timestamp": "2025-12-03T19:33:05.757561+00:00", "meta": {"OBJECT_NAME": "STARLINK-35820", "OBJECT_ID": "2025-270K", "EPOCH": "2025-12-03T08:00:01.999008", "MEAN_MOTION": 15.7746612, "ECCENTRICITY": 0.0001765, "INCLINATION": 42.9989, "RA_OF_ASC_NODE": 248.7015, "ARG_OF_PERICENTER": 269.627, "MEAN_ANOMALY": 79.1738, "EPHEMERIS_TYPE": 0, "CLASSIFICATION_TYPE": "U", "NORAD_CAT_ID": 66597, "ELEMENT_SET_NO": 999, "REV_AT_EPOCH": 299, "BSTAR": -0.011062, "MEAN_MOTION_DOT": -0.01676847, "MEAN_MOTION_DDOT": 0}, "tle": {"line1": "1 66597U 25270K   25337.33335647 -.01676847  00000+0 -11062-1 0  9994", "line2": "2 66597  42.9989 248.7015 0001765 269.6270  79.1738 15.77466120  2998"}}, "geometry": {"type": "Point", "coordinates": [83.72245616001668, -16.02093199834295]}}, {"type": "Feature", "properties": {"norad_id": 66598, "name": "STARLINK-35981", "group": "last-30-days", "lat": -17.28196773382127, "lon": 85.27412773686402, "alt_km": 343.835459564516, "timestamp": "2025-12-03T19:33:05.757574+00:00", "meta": {"OBJECT_NAME": "STARLINK-35981", "OBJECT_ID": "2025-270L", "EPOCH": "2025-12-03T08:00:01.999008", "MEAN_MOTION": 15.77429273, "ECCENTRICITY": 0.0001708, "INCLINATION": 42.9987, "RA_OF_ASC_NODE": 248.6959, "ARG_OF_PERICENTER": 264.417, "MEAN_ANOMALY": 86.414, "EPHEMERIS_TYPE": 0, "CLASSIFICATION_TYPE": "U", "NORAD_CAT_ID": 66598, "ELEMENT_SET_NO": 999, "REV_AT_EPOCH": 273, "BSTAR": -0.011182, "MEAN_MOTION_DOT": -0.01690393, "MEAN_MOTION_DDOT": 0}, "tle": {"line1": "1 66598U 25270L   25337.33335647 -.01690393  00000+0 -11182-1 0  9990", "line2": "2 66598  42.9987 248.6959 0001708 264.4170  86.4140 15.77429273  2730"}}, "geometry": {"type": "Point", "coordinates": [85.27412773686402, -17.28196773382127]}}, {"type": "Feature", "properties": {"norad_id": 66599, "name": "STARLINK-35930", "group": "last-30-days", "lat": -19.656946934572453, "lon": 88.30141147738355, "alt_km": 340.528033134151, "timestamp": "2025-12-03T19:33:05.757584+00:00", "meta": {"OBJECT_NAME": "STARLINK-35930", "OBJECT_ID": "2025-270M", "EPOCH": "2025-12-03T11:04:17.203872", "MEAN_MOTION": 15.7770827, "ECCENTRICITY": 0.0003826, "INCLINATION": 42.998, "RA_OF_ASC_NODE": 247.9123, "ARG_OF_PERICENTER": 352.3855, "MEAN_ANOMALY": 7.6956, "EPHEMERIS_TYPE": 0, "CLASSIFICATION_TYPE": "U", "NORAD_CAT_ID": 66599, "ELEMENT_SET_NO": 999, "REV_AT_EPOCH": 289, "BSTAR": 0.0011537, "MEAN_MOTION_DOT": 0.00203832, "MEAN_MOTION_DDOT": 0}, "tle": {"line1": "1 66599U 25270M   25337.46131023  .00203832  00000+0  11537-2 0  9997", "line2": "2 66599  42.9980 247.9123 0003826 352.3855   7.6956 15.77708270  2893"}}, "geometry": {"type": "Point", "coordinates": [88.30141147738355, -19.656946934572453]}}, {"type": "Feature", "properties": {"norad_id": 66600, "name": "STARLINK-35980", "group": "last-30-days", "lat": -19.73600365804265, "lon": 88.40476505704069, "alt_km": 344.2155954629652, "timestamp": "2025-12-03T19:33:05.757594+00:00", "meta": {"OBJECT_NAME": "STARLINK-35980", "OBJECT_ID": "2025-270N", "EPOCH": "2025-12-03T08:00:01.999008", "MEAN_MOTION": 15.77393237, "ECCENTRICITY": 0.0001792, "INCLINATION": 42.9988, "RA_OF_ASC_NODE": 248.6866, "ARG_OF_PERICENTER": 269.4305, "MEAN_ANOMALY": 85.3389, "EPHEMERIS_TYPE": 0, "CLASSIFICATION_TYPE": "U", "NORAD_CAT_ID": 66600, "ELEMENT_SET_NO": 999, "REV_AT_EPOCH": 279, "BSTAR": -0.011303, "MEAN_MOTION_DOT": -0.01704213, "MEAN_MOTION_DDOT": 0}, "tle": {"line1": "1 66600U 25270N   25337.33335647 -.01704213  00000+0 -11303-1 0  9996", "line2": "2 66600  42.9988 248.6866 0001792 269.4305  85.3389 15.77393237  2799"}}, "geometry": {"type": "Point", "coordinates": [88.40476505704069, -19.73600365804265]}}, {"type": "Feature", "properties": {"norad_id": 66601, "name": "STARLINK-35978", "group": "last-30-days", "lat": -21.887839348132978, "lon": 91.29300978289454, "alt_km": 341.47526646656115, "timestamp": "2025-12-03T19:33:05.757604+00:00", "meta": {"OBJECT_NAME": "STARLINK-35978", "OBJECT_ID": "2025-270P", "EPOCH": "2025-12-03T11:03:16.825824", "MEAN_MOTION": 15.77522655, "ECCENTRICITY": 0.0003141, "INCLINATION": 42.998, "RA_OF_ASC_NODE": 247.9074, "ARG_OF_PERICENTER": 350.3691, "MEAN_ANOMALY": 9.7118, "EPHEMERIS_TYPE": 0, "CLASSIFICATION_TYPE": "U", "NORAD_CAT_ID": 66601, "ELEMENT_SET_NO": 999, "REV_AT_EPOCH": 273, "BSTAR": -0.00080516, "MEAN_MOTION_DOT": -0.00136391, "MEAN_MOTION_DDOT": 0}, "tle": {"line1": "1 66601U 25270P   25337.46061141 -.00136391  00000+0 -80516-3 0  9995", "line2": "2 66601  42.9980 247.9074 0003141 350.3691   9.7118 15.77522655  2735"}}, "geometry": {"type": "Point", "coordinates": [91.29300978289454, -21.887839348132978]}}]}